0 FENGYUN 1C DEB
1 31751U 99025CFA 13280.88077782  .00003710  00000-0  16040-2 0  3755
2 31751 098.9095 307.7425 0075842 246.5144 239.0901 14.23460411332467
0 FENGYUN 1C DEB
1 31751U 99025CFA 13281.86473499  .00006313  00000-0  27141-2 0  3766
2 31751 098.9098 308.7386 0075933 243.6817 241.3491 14.23468634332604
0 FENGYUN 1C DEB
1 31751U 99025CFA 13284.31265168  .00005658  00000-0  24330-2 0  3770
2 31751 098.9104 311.2171 0076222 236.6501 185.7690 14.23492655332946
0 FENGYUN 1C DEB
1 31751U 99025CFA 13288.31923850  .00007362  00000-0  31556-2 0  3786
2 31751 098.9091 315.2749 0076681 225.1837 198.0232 14.23531835333517
0 FENGYUN 1C DEB
1 31751U 99025CFA 13291.27107383  .00006018  00000-0  25819-2 0  3793
2 31751 098.9096 318.2642 0076701 216.7880 205.4188 14.23563221333937
0 FENGYUN 1C DEB
1 31751U 99025CFA 13293.88393639  .00005961  00000-0  25547-2 0  3809
2 31751 098.9059 320.9130 0077504 209.4368 275.8689 14.23590200334317
